{
  "type": "FeatureCollection",
  "features": [
    {
      "type": "Feature",
      "properties": {
        "norad_id": 65731,
        "name": "1998-067XK",
        "group": "stations",
        "lat": -51.333281008359734,
        "lon": 15.665889790331805,
        "alt_km": 369.98756834941014,
        "timestamp": "2025-12-17T09:00:15.913007+00:00",
        "meta_object_name": "1998-067XK",
        "meta_object_id": "1998-067XK",
        "meta_epoch": "2025-12-16T15:02:12.236928",
        "meta_mean_motion": 15.66493016,
        "meta_eccentricity": 0.00047907,
        "meta_inclination": 51.6286,
        "meta_ra_of_asc_node": 117.5003,
        "meta_arg_of_pericenter": 271.0791,
        "meta_mean_anomaly": 88.9655,
        "meta_ephemeris_type": 0,
        "meta_classification_type": "U",
        "meta_norad_cat_id": 65731,
        "meta_element_set_no": 999,
        "meta_rev_at_epoch": 1375,
        "meta_bstar": 0.00081582518,
        "meta_mean_motion_dot": 0.00087181,
        "meta_mean_motion_ddot": 0,
        "tle_line1": "1 65731U 98067XK  25350.62653052  .00087181  00000+0  81583-3 0  9998",
        "tle_line2": "2 65731  51.6286 117.5003 0004790 271.0791  88.9655 15.66493016 13754"
      },
      "geometry": {
        "type": "Point",
        "coordinates": [
          15.665889790331805,
          -51.333281008359734
        ]
      }
    },
    {
      "type": "Feature",
      "properties": {
        "norad_id": 65732,
        "name": "RSP-03",
        "group": "stations",
        "lat": -48.179650419148594,
        "lon": 50.556080345350956,
        "alt_km": 360.2711016574476,
        "timestamp": "2025-12-17T09:00:15.913018+00:00",
        "meta_object_name": "RSP-03",
        "meta_object_id": "1998-067XL",
        "meta_epoch": "2025-12-16T14:58:29.275680",
        "meta_mean_motion": 15.69615447,
        "meta_eccentricity": 0.00056224,
        "meta_inclination": 51.6264,
        "meta_ra_of_asc_node": 116.7219,
        "meta_arg_of_pericenter": 277.262,
        "meta_mean_anomaly": 82.7738,
        "meta_ephemeris_type": 0,
        "meta_classification_type": "U",
        "meta_norad_cat_id": 65732,
        "meta_element_set_no": 999,
        "meta_rev_at_epoch": 1377,
        "meta_bstar": 0.00094839264,
        "meta_mean_motion_dot": 0.00115729,
        "meta_mean_motion_ddot": 0,
        "tle_line1": "1 65732U 98067XL  25350.62394995  .00115729  00000+0  94839-3 0  9995",
        "tle_line2": "2 65732  51.6264 116.7219 0005622 277.2620  82.7738 15.69615447 13778"
      },
      "geometry": {
        "type": "Point",
        "coordinates": [
          50.556080345350956,
          -48.179650419148594
        ]
      }
    },
    {
      "type": "Feature",
      "properties": {
        "norad_id": 65733,
        "name": "GHS-01",
        "group": "stations",
        "lat": -32.655161115502025,
        "lon": 80.80484046838436,
        "alt_km": 338.14208611255435,
        "timestamp": "2025-12-17T09:00:15.913028+00:00",
        "meta_object_name": "GHS-01",
        "meta_object_id": "1998-067XM",
        "meta_epoch": "2025-12-16T14:56:03.112800",
        "meta_mean_motion": 15.76521023,
        "meta_eccentricity": 0.00077117,
        "meta_inclination": 51.6275,
        "meta_ra_of_asc_node": 115.2086,
        "meta_arg_of_pericenter": 306.7949,
        "meta_mean_anomaly": 53.2342,
        "meta_ephemeris_type": 0,
        "meta_classification_type": "U",
        "meta_norad_cat_id": 65733,
        "meta_element_set_no": 999,
        "meta_rev_at_epoch": 1379,
        "meta_bstar": 0.0012704377,
        "meta_mean_motion_dot": 0.00211236,
        "meta_mean_motion_ddot": 0,
        "tle_line1": "1 65733U 98067XM  25350.62225825  .00211236  00000+0  12704-2 0  9991",
        "tle_line2": "2 65733  51.6275 115.2086 0007711 306.7949  53.2342 15.76521023 13790"
      },
      "geometry": {
        "type": "Point",
        "coordinates": [
          80.80484046838436,
          -32.655161115502025
        ]
      }
    },
    {
      "type": "Feature",
      "properties": {
        "norad_id": 65941,
        "name": "YOTSUBA-KULOVER",
        "group": "stations",
        "lat": -50.78421789639594,
        "lon": 40.50152819800822,
        "alt_km": 391.08894667319146,
        "timestamp": "2025-12-17T09:00:15.913038+00:00",
        "meta_object_name": "YOTSUBA-KULOVER",
        "meta_object_id": "1998-067XN",
        "meta_epoch": "2025-12-16T14:54:10.853280",
        "meta_mean_motion": 15.59985033,
        "meta_eccentricity": 0.00014592,
        "meta_inclination": 51.6282,
        "meta_ra_of_asc_node": 120.4613,
        "meta_arg_of_pericenter": 292.17,
        "meta_mean_anomaly": 67.9139,
        "meta_ephemeris_type": 0,
        "meta_classification_type": "U",
        "meta_norad_cat_id": 65941,
        "meta_element_set_no": 999,
        "meta_rev_at_epoch": 1046,
        "meta_bstar": 0.00069919558,
        "meta_mean_motion_dot": 0.00057497,
        "meta_mean_motion_ddot": 0,
        "tle_line1": "1 65941U 98067XN  25350.62095895  .00057497  00000+0  69920-3 0  9994",
        "tle_line2": "2 65941  51.6282 120.4613 0001459 292.1700  67.9139 15.59985033 10462"
      },
      "geometry": {
        "type": "Point",
        "coordinates": [
          40.50152819800822,
          -50.78421789639594
        ]
      }
    },
    {
      "type": "Feature",
      "properties": {
        "norad_id": 65942,
        "name": "BOTAN",
        "group": "stations",
        "lat": -38.46041956300124,
        "lon": 76.85075546786545,
        "alt_km": 379.1098585147074,
        "timestamp": "2025-12-17T09:00:15.913049+00:00",
        "meta_object_name": "BOTAN",
        "meta_object_id": "1998-067XP",
        "meta_epoch": "2025-12-16T14:49:24.708576",
        "meta_mean_motion": 15.63698915,
        "meta_eccentricity": 0.00028624,
        "meta_inclination": 51.628,
        "meta_ra_of_asc_node": 119.6894,
        "meta_arg_of_pericenter": 271.2496,
        "meta_mean_anomaly": 88.817,
        "meta_ephemeris_type": 0,
        "meta_classification_type": "U",
        "meta_norad_cat_id": 65942,
        "meta_element_set_no": 999,
        "meta_rev_at_epoch": 1047,
        "meta_bstar": 0.00096273878,
        "meta_mean_motion_dot": 0.00092119,
        "meta_mean_motion_ddot": 0,
        "tle_line1": "1 65942U 98067XP  25350.61764709  .00092119  00000+0  96274-3 0  9993",
        "tle_line2": "2 65942  51.6280 119.6894 0002862 271.2496  88.8170 15.63698915 10474"
      },
      "geometry": {
        "type": "Point",
        "coordinates": [
          76.85075546786545,
          -38.46041956300124
        ]
      }
    },
    {
      "type": "Feature",
      "properties": {
        "norad_id": 65943,
        "name": "E-KAGAKU-1",
        "group": "stations",
        "lat": -50.89893414689082,
        "lon": 39.52594224291745,
        "alt_km": 391.4393820726691,
        "timestamp": "2025-12-17T09:00:15.913059+00:00",
        "meta_object_name": "E-KAGAKU-1",
        "meta_object_id": "1998-067XQ",
        "meta_epoch": "2025-12-15T15:50:32.577792",
        "meta_mean_motion": 15.59851021,
        "meta_eccentricity": 0.00016366,
        "meta_inclination": 51.6292,
        "meta_ra_of_asc_node": 125.299,
        "meta_arg_of_pericenter": 221.4661,
        "meta_mean_anomaly": 138.6208,
        "meta_ephemeris_type": 0,
        "meta_classification_type": "U",
        "meta_norad_cat_id": 65943,
        "meta_element_set_no": 999,
        "meta_rev_at_epoch": 1031,
        "meta_bstar": 0.0006409113,
        "meta_mean_motion_dot": 0.00052357,
        "meta_mean_motion_ddot": 0,
        "tle_line1": "1 65943U 98067XQ  25349.66009928  .00052357  00000+0  64091-3 0  9994",
        "tle_line2": "2 65943  51.6292 125.2990 0001636 221.4661 138.6208 15.59851021 10310"
      },
      "geometry": {
        "type": "Point",
        "coordinates": [
          39.52594224291745,
          -50.89893414689082
        ]
      }
    },
    {
      "type": "Feature",
      "properties": {
        "norad_id": 66052,
        "name": "HRC MONOBLOCK CAMERA",
        "group": "stations",
        "lat": 7.038034969122976,
        "lon": -67.2275079502224,
        "alt_km": 401.88690024684365,
        "timestamp": "2025-12-17T09:00:15.913069+00:00",
        "meta_object_name": "HRC MONOBLOCK CAMERA",
        "meta_object_id": "1998-067XR",
        "meta_epoch": "2025-12-16T16:50:34.259424",
        "meta_mean_motion": 15.54421487,
        "meta_eccentricity": 0.00028317,
        "meta_inclination": 51.6291,
        "meta_ra_of_asc_node": 121.7469,
        "meta_arg_of_pericenter": 202.0101,
        "meta_mean_anomaly": 158.0768,
        "meta_ephemeris_type": 0,
        "meta_classification_type": "U",
        "meta_norad_cat_id": 66052,
        "meta_element_set_no": 999,
        "meta_rev_at_epoch": 945,
        "meta_bstar": 0.00049497455,
        "meta_mean_motion_dot": 0.00032777,
        "meta_mean_motion_ddot": 0,
        "tle_line1": "1 66052U 98067XR  25350.70178541  .00032777  00000+0  49497-3 0  9998",
        "tle_line2": "2 66052  51.6291 121.7469 0002831 202.0101 158.0768 15.54421487  9459"
      },
      "geometry": {
        "type": "Point",
        "coordinates": [
          -67.2275079502224,
          7.038034969122976
        ]
      }
    }
  ]
}